LEMUR-1                 
1 40044U 14033AL  26179.40985415  .00001833  00000+0  21519-3 0  9999
2 40044  97.7887 328.9661 0049135  42.6875 317.8141 14.85285990647136
LEMUR-2-GREENBERG       
1 42837U 17042N   26179.45588170  .00015761  00000+0  51709-3 0  9995
2 42837  97.3815   0.0310 0007510 330.7675  29.3145 15.31665939490114
LEMUR-2-ANDIS           
1 42838U 17042P   26179.00279847  .00021082  00000+0  61651-3 0  9995
2 42838  97.3671 359.8013 0007381 329.8495  30.2323 15.35269048490119
LEMUR-2-MONSON          
1 42839U 17042Q   26179.48918479  .00014325  00000+0  52124-3 0  9996
2 42839  97.4077   0.0192 0005348 321.0092  39.0761 15.28328572489898
LEMUR-2-FURIAUS         
1 42840U 17042R   26179.45751911  .00016140  00000+0  54696-3 0  9994
2 42840  97.3764 357.9623 0007367  32.5167 327.6527 15.30612679489933
LEMUR-2-PETERG          
1 42841U 17042S   26179.45017802  .00023815  00000+0  71668-3 0  9994
2 42841  97.3984   4.5017 0002704 303.2188  56.8796 15.34361390490162
LEMUR-2-DEMBITZ         
1 42842U 17042T   26179.47717681  .00014026  00000+0  47578-3 0  9996
2 42842  97.3820   1.0143 0005746 347.8712  12.2389 15.30623656490076
LEMUR-2-ZACHARY         
1 42845U 17042W   26179.48252400  .00042915  00000+0  73164-3 0  9991
2 42845  97.3584  11.3662 0002314 336.9543  23.1605 15.51240492490950
LEMUR-2-AMANDA-SVANTE   
1 48269U 21034B   26179.18161918  .00031691  00000+0  93446-3 0  9997
2 48269  97.5765 257.7609 0003440 180.4198 179.7042 15.34946863282740
LEMUR-2-SPECIAL-K       
1 48273U 21034F   26179.20391493  .00184709  00000+0  16453-2 0  9999
2 48273  97.5649 266.8840 0005133 221.6314 138.4556 15.67875055283410
LEMUR-2-EMBRIONOVIS     
1 56970U 23084AQ  26179.65492387  .00012809  00000+0  34639-3 0  9990
2 56970  97.6297 324.2966 0007443 272.6624  87.3768 15.37831411169445
LEMUR-2-DEVERILL-M-T    
1 57391U 23100F   26179.60533325  .00024941  00000+0  62006-3 0  9999
2 57391  99.4466 221.6643 0005259   8.7641 351.3689 15.40308498163003
LEMUR-2-BASS            
1 58259U 23174D   26179.49241401  .00016892  00000+0  37856-3 0  9993
2 58259  97.3855 264.3644 0008089 128.1413 232.0565 15.43464947147105
LEMUR-2-JK0903EM1407    
1 58336U 23174CJ  26179.49181051  .00026274  00000+0  43345-3 0  9998
2 58336  97.3933 270.2836 0004935  86.7546 273.4271 15.52252331147485
LEMUR-2-MJR092620       
1 58340U 23174CN  26179.49255240  .00017974  00000+0  37882-3 0  9991
2 58340  97.3984 269.7319 0006733  83.6101 276.5914 15.45283472147396
LEMUR-2-NIMBUS2000      
1 58899U 24022A   26179.51332572  .00020843  00000+0  51522-3 0  9996
2 58899  97.4096  29.6594 0010166  81.6912 278.5486 15.40449202134012
LEMUR-2-VALHALLA        
1 58900U 24022B   26179.57726571  .00015142  00000+0  38051-3 0  9999
2 58900  97.4095  29.7081 0010655  77.4515 282.7922 15.40010898134029
LEMUR-2-CAEL            
1 58903U 24022E   26179.57738567  .00015831  00000+0  38095-3 0  9993
2 58903  97.4078  30.6642 0008796  63.6341 296.5808 15.41335745134099
LEMUR-2-JOHNNYTRUONG    
1 59146U 24043BA  26179.36926402  .00037460  00000+0  44118-3 0  9995
2 59146  97.5374 331.7713 0004766 143.5441 216.6141 15.61298987129786
LEMUR-2-TOMATOKECHUP    
1 60471U 24149D   26179.57206780  .00010561  00000+0  30099-3 0  9994
2 60471  97.3804 261.6486 0002389 154.0618 206.0746 15.36261692103911
LEMUR-2-STELLA          
1 60533U 24149BT  26179.46524702  .00010015  00000+0  58616-3 0  9997
2 60533  97.6740 261.9703 0001250  99.9606 260.1765 15.12038242102207
LEMUR-2-MARHISYAM       
1 60536U 24149BW  26179.18490250  .00010521  00000+0  62529-3 0  9999
2 60536  97.6885 262.1490 0003116  97.4793 262.6791 15.11467817102141
LEMUR-2-AHMED-ASRAR     
1 60576U 24149DN  26179.47293560  .00010680  00000+0  60908-3 0  9995
2 60576  97.7011 264.5752 0000758   2.3479 357.7755 15.12957260102276
LEMUR-2-LLOYD           
1 60577U 24149DP  26179.18003787  .00010353  00000+0  65040-3 0  9993
2 60577  97.6751 260.3154 0004983 112.8633 247.3122 15.09443198102054
LEMUR-2-SQUIRRELCOMM    
1 60578U 24149DQ  26179.47524170  .00005267  00000+0  35319-3 0  9994
2 60578  97.6718 260.3512 0005673  30.4004 329.7551 15.07276262102101
LEMUR-2-SIERRINI        
1 60579U 24149DR  26179.47552787  .00010214  00000+0  61183-3 0  9996
2 60579  97.6849 262.1182 0006502 133.8627 226.3141 15.11178820102160
LEMUR-2-WILSON          
1 62694U 25009CP  26179.47186257  .00001974  00000+0  18479-3 0  9990
2 62694  97.7025 257.7384 0003317  25.0918 335.0463 14.95210815 79044
LEMUR-2-STAR-FOX        
1 62696U 25009CR  26179.48039060  .00006037  00000+0  45736-3 0  9993
2 62696  97.6956 261.0081 0004320  88.9470 271.2250 15.02639503 79252
LEMUR-2-ARIANNA         
1 62699U 25009CU  26179.47884394  .00006993  00000+0  52896-3 0  9999
2 62699  97.6897 260.7721 0004692  93.4073 266.7688 15.02638907 79259
LEMUR-2-ALISIA          
1 62706U 25009DB  26179.45464467  .00007855  00000+0  58918-3 0  9990
2 62706  97.6940 261.5463 0002835 179.6918 180.4309 15.02923422101854
