OBJECT_NAME,OBJECT_ID,EPOCH,MEAN_MOTION,ECCENTRICITY,INCLINATION,RA_OF_ASC_NODE,ARG_OF_PERICENTER,MEAN_ANOMALY,EPHEMERIS_TYPE,CLASSIFICATION_TYPE,NORAD_CAT_ID,ELEMENT_SET_NO,REV_AT_EPOCH,BSTAR,MEAN_MOTION_DOT,MEAN_MOTION_DDOT
LEMUR-1,2014-033AL,2026-06-28T09:50:11.398560,14.85285990,.00491358,97.7887,328.9661,42.6875,317.8141,0,U,40044,999,64713,.21519192E-3,.1833E-4,0
LEMUR-2-GREENBERG,2017-042N,2026-06-28T10:56:28.178880,15.31665939,.000751,97.3815,0.0310,330.7675,29.3145,0,U,42837,999,49011,.51708611E-3,.15761E-3,0
LEMUR-2-ANDIS,2017-042P,2026-06-28T00:04:01.787808,15.35269048,.00073811,97.3671,359.8013,329.8495,30.2323,0,U,42838,999,49011,.61650722E-3,.21082E-3,0
LEMUR-2-MONSON,2017-042Q,2026-06-28T11:44:25.565856,15.28328572,.00053481,97.4077,0.0192,321.0092,39.0761,0,U,42839,999,48989,.52123945E-3,.14325E-3,0
LEMUR-2-FURIAUS,2017-042R,2026-06-28T10:58:49.651104,15.30612679,.00073674,97.3764,357.9623,32.5167,327.6527,0,U,42840,999,48993,.54695584E-3,.1614E-3,0
LEMUR-2-PETERG,2017-042S,2026-06-28T10:48:15.380928,15.34361390,.0002704,97.3984,4.5017,303.2188,56.8796,0,U,42841,999,49016,.71667564E-3,.23815E-3,0
LEMUR-2-DEMBITZ,2017-042T,2026-06-28T11:27:08.076384,15.30623656,.00057464,97.3820,1.0143,347.8712,12.2389,0,U,42842,999,49007,.47578207E-3,.14026E-3,0
LEMUR-2-ZACHARY,2017-042W,2026-06-28T11:34:50.073600,15.51240492,.00023141,97.3584,11.3662,336.9543,23.1605,0,U,42845,999,49095,.7316417E-3,.42915E-3,0
LEMUR-2-AMANDA-SVANTE,2021-034B,2026-06-28T04:21:31.897152,15.34946863,.00034407,97.5765,257.7609,180.4198,179.7042,0,U,48269,999,28274,.93445819E-3,.31691E-3,0
LEMUR-2-SPECIAL-K,2021-034F,2026-06-28T04:53:38.249952,15.67875055,.00051332,97.5649,266.8840,221.6314,138.4556,0,U,48273,999,28341,.16453293E-2,.184709E-2,0
LEMUR-2-EMBRIONOVIS,2023-084AQ,2026-06-28T15:43:05.422368,15.37831411,.0007443,97.6297,324.2966,272.6624,87.3768,0,U,56970,999,16944,.34639172E-3,.12809E-3,0
LEMUR-2-DEVERILL-M-T,2023-100F,2026-06-28T14:31:40.792800,15.40308498,.00052599,99.4466,221.6643,8.7641,351.3689,0,U,57391,999,16300,.62005819E-3,.24941E-3,0
LEMUR-2-BASS,2023-174D,2026-06-28T11:49:04.570464,15.43464947,.00080897,97.3855,264.3644,128.1413,232.0565,0,U,58259,999,14710,.37856489E-3,.16892E-3,0
LEMUR-2-JK0903EM1407,2023-174CJ,2026-06-28T11:48:12.428064,15.52252331,.00049359,97.3933,270.2836,86.7546,273.4271,0,U,58336,999,14748,.43345331E-3,.26274E-3,0
LEMUR-2-MJR092620,2023-174CN,2026-06-28T11:49:16.527360,15.45283472,.0006733,97.3984,269.7319,83.6101,276.5914,0,U,58340,999,14739,.37881941E-3,.17974E-3,0
LEMUR-2-NIMBUS2000,2024-022A,2026-06-28T12:19:11.342208,15.40449202,.00101663,97.4096,29.6594,81.6912,278.5486,0,U,58899,999,13401,.51521502E-3,.20843E-3,0
LEMUR-2-VALHALLA,2024-022B,2026-06-28T13:51:15.757344,15.40010898,.00106554,97.4095,29.7081,77.4515,282.7922,0,U,58900,999,13402,.38050812E-3,.15142E-3,0
LEMUR-2-CAEL,2024-022E,2026-06-28T13:51:26.121888,15.41335745,.00087966,97.4078,30.6642,63.6341,296.5808,0,U,58903,999,13409,.38094842E-3,.15831E-3,0
LEMUR-2-JOHNNYTRUONG,2024-043BA,2026-06-28T08:51:44.411328,15.61298987,.00047662,97.5374,331.7713,143.5441,216.6141,0,U,59146,999,12978,.44118096E-3,.3746E-3,0
LEMUR-2-TOMATOKECHUP,2024-149D,2026-06-28T13:43:46.657920,15.36261692,.00023896,97.3804,261.6486,154.0618,206.0746,0,U,60471,999,10391,.30098927E-3,.10561E-3,0
LEMUR-2-STELLA,2024-149BT,2026-06-28T11:09:57.342528,15.12038242,.00012503,97.6740,261.9703,99.9606,260.1765,0,U,60533,999,10220,.58616136E-3,.10015E-3,0
LEMUR-2-MARHISYAM,2024-149BW,2026-06-28T04:26:15.576000,15.11467817,.00031163,97.6885,262.1490,97.4793,262.6791,0,U,60536,999,10214,.62528833E-3,.10521E-3,0
LEMUR-2-AHMED-ASRAR,2024-149DN,2026-06-28T11:21:01.635840,15.12957260,.00007585,97.7011,264.5752,2.3479,357.7755,0,U,60576,999,10227,.60907901E-3,.1068E-3,0
LEMUR-2-LLOYD,2024-149DP,2026-06-28T04:19:15.271968,15.09443198,.00049836,97.6751,260.3154,112.8633,247.3122,0,U,60577,999,10205,.65039916E-3,.10353E-3,0
LEMUR-2-SQUIRRELCOMM,2024-149DQ,2026-06-28T11:24:20.882880,15.07276262,.00056738,97.6718,260.3512,30.4004,329.7551,0,U,60578,999,10210,.35319234E-3,.5267E-4,0
LEMUR-2-SIERRINI,2024-149DR,2026-06-28T11:24:45.607968,15.11178820,.00065029,97.6849,262.1182,133.8627,226.3141,0,U,60579,999,10216,.61183033E-3,.10214E-3,0
LEMUR-2-WILSON,2025-009CP,2026-06-28T11:19:28.926048,14.95210815,.0003317,97.7025,257.7384,25.0918,335.0463,0,U,62694,999,7904,.1847911E-3,.1974E-4,0
LEMUR-2-STAR-FOX,2025-009CR,2026-06-28T11:31:45.747840,15.02639503,.00043204,97.6956,261.0081,88.9470,271.2250,0,U,62696,999,7925,.45735915E-3,.6037E-4,0
LEMUR-2-ARIANNA,2025-009CU,2026-06-28T11:29:32.116416,15.02638907,.00046929,97.6897,260.7721,93.4073,266.7688,0,U,62699,999,7925,.52895701E-3,.6993E-4,0
LEMUR-2-ALISIA,2025-009DB,2026-06-28T10:54:41.299488,15.02923422,.00028359,97.6940,261.5463,179.6918,180.4309,0,U,62706,999,10185,.58917661E-3,.7855E-4,0
